{
  "type": "FeatureCollection",
  "features": [
    {
      "type": "Feature",
      "properties": {
        "norad_id": 34738,
        "name": "COSMOS 2251 DEB",
        "group": "cosmos-2251-debris",
        "lat": -3.9592880099563477,
        "lon": -17.360425735816257,
        "alt_km": 760.4094618944073,
        "timestamp": "2025-12-02T23:34:15.912240+00:00",
        "meta_object_name": "COSMOS 2251 DEB",
        "meta_object_id": "1993-036ZG",
        "meta_epoch": "2025-12-02T12:54:00.749088",
        "meta_mean_motion": 14.46263571,
        "meta_eccentricity": 0.0047109,
        "meta_inclination": 74.0141,
        "meta_ra_of_asc_node": 162.3334,
        "meta_arg_of_pericenter": 310.5369,
        "meta_mean_anomaly": 79.9077,
        "meta_ephemeris_type": 0,
        "meta_classification_type": "U",
        "meta_norad_cat_id": 34738,
        "meta_element_set_no": 999,
        "meta_rev_at_epoch": 87711,
        "meta_bstar": 0.00037485,
        "meta_mean_motion_dot": 1.333e-05,
        "meta_mean_motion_ddot": 0,
        "tle_line1": "1 34738U 93036ZG  25336.53750867  .00001333  00000+0  37485-3 0  9995",
        "tle_line2": "2 34738  74.0141 162.3334 0047109 310.5369  79.9077 14.46263571877116"
      },
      "geometry": {
        "type": "Point",
        "coordinates": [
          -17.360425735816257,
          -3.9592880099563477
        ]
      }
    },
    {
      "type": "Feature",
      "properties": {
        "norad_id": 34750,
        "name": "COSMOS 2251 DEB",
        "group": "cosmos-2251-debris",
        "lat": 2.5445976628109284,
        "lon": 39.599943905419174,
        "alt_km": 663.9302458645043,
        "timestamp": "2025-12-02T23:34:15.912250+00:00",
        "meta_object_name": "COSMOS 2251 DEB",
        "meta_object_id": "1993-036ZU",
        "meta_epoch": "2025-12-02T03:36:29.142720",
        "meta_mean_motion": 14.61150871,
        "meta_eccentricity": 0.0039342,
        "meta_inclination": 74.1086,
        "meta_ra_of_asc_node": 221.9078,
        "meta_arg_of_pericenter": 178.4434,
        "meta_mean_anomaly": 305.2442,
        "meta_ephemeris_type": 0,
        "meta_classification_type": "U",
        "meta_norad_cat_id": 34750,
        "meta_element_set_no": 999,
        "meta_rev_at_epoch": 88076,
        "meta_bstar": 0.0011876712,
        "meta_mean_motion_dot": 5.884e-05,
        "meta_mean_motion_ddot": 0,
        "tle_line1": "1 34750U 93036ZU  25336.15033730  .00005884  00000+0  11877-2 0  9991",
        "tle_line2": "2 34750  74.1086 221.9078 0039342 178.4434 305.2442 14.61150871880761"
      },
      "geometry": {
        "type": "Point",
        "coordinates": [
          39.599943905419174,
          2.5445976628109284
        ]
      }
    },
    {
      "type": "Feature",
      "properties": {
        "norad_id": 34752,
        "name": "COSMOS 2251 DEB",
        "group": "cosmos-2251-debris",
        "lat": 43.741562489237744,
        "lon": 36.38228332780813,
        "alt_km": 573.4602771872342,
        "timestamp": "2025-12-02T23:34:15.912260+00:00",
        "meta_object_name": "COSMOS 2251 DEB",
        "meta_object_id": "1993-036ZW",
        "meta_epoch": "2025-12-02T12:09:26.478144",
        "meta_mean_motion": 14.99547096,
        "meta_eccentricity": 0.0048497,
        "meta_inclination": 74.0146,
        "meta_ra_of_asc_node": 21.4262,
        "meta_arg_of_pericenter": 153.2836,
        "meta_mean_anomaly": 207.0865,
        "meta_ephemeris_type": 0,
        "meta_classification_type": "U",
        "meta_norad_cat_id": 34752,
        "meta_element_set_no": 999,
        "meta_rev_at_epoch": 89696,
        "meta_bstar": 0.0011243,
        "meta_mean_motion_dot": 0.00014153,
        "meta_mean_motion_ddot": 0,
        "tle_line1": "1 34752U 93036ZW  25336.50655646  .00014153  00000+0  11243-2 0  9994",
        "tle_line2": "2 34752  74.0146  21.4262 0048497 153.2836 207.0865 14.99547096896962"
      },
      "geometry": {
        "type": "Point",
        "coordinates": [
          36.38228332780813,
          43.741562489237744
        ]
      }
    },
    {
      "type": "Feature",
      "properties": {
        "norad_id": 34754,
        "name": "COSMOS 2251 DEB",
        "group": "cosmos-2251-debris",
        "lat": -55.81551855726039,
        "lon": -139.284386510301,
        "alt_km": 754.2379622592944,
        "timestamp": "2025-12-02T23:34:15.912270+00:00",
        "meta_object_name": "COSMOS 2251 DEB",
        "meta_object_id": "1993-036ZY",
        "meta_epoch": "2025-12-02T04:32:18.437856",
        "meta_mean_motion": 14.40455255,
        "meta_eccentricity": 0.00291165,
        "meta_inclination": 74.0309,
        "meta_ra_of_asc_node": 247.1171,
        "meta_arg_of_pericenter": 5.4462,
        "meta_mean_anomaly": 144.8545,
        "meta_ephemeris_type": 0,
        "meta_classification_type": "U",
        "meta_norad_cat_id": 34754,
        "meta_element_set_no": 999,
        "meta_rev_at_epoch": 87981,
        "meta_bstar": 0.00026434584,
        "meta_mean_motion_dot": 8.18e-06,
        "meta_mean_motion_ddot": 0,
        "tle_line1": "1 34754U 93036ZY  25336.18910229  .00000818  00000+0  26435-3 0  9994",
        "tle_line2": "2 34754  74.0309 247.1171 0029116   5.4462 144.8545 14.40455255879810"
      },
      "geometry": {
        "type": "Point",
        "coordinates": [
          -139.284386510301,
          -55.81551855726039
        ]
      }
    },
    {
      "type": "Feature",
      "properties": {
        "norad_id": 34755,
        "name": "COSMOS 2251 DEB",
        "group": "cosmos-2251-debris",
        "lat": -33.119365473208966,
        "lon": -65.12943594486016,
        "alt_km": 772.1891160989726,
        "timestamp": "2025-12-02T23:34:15.912281+00:00",
        "meta_object_name": "COSMOS 2251 DEB",
        "meta_object_id": "1993-036ZZ",
        "meta_epoch": "2025-11-28T15:26:25.154880",
        "meta_mean_motion": 13.50483978,
        "meta_eccentricity": 0.04082229,
        "meta_inclination": 73.9254,
        "meta_ra_of_asc_node": 312.682,
        "meta_arg_of_pericenter": 334.9897,
        "meta_mean_anomaly": 144.2013,
        "meta_ephemeris_type": 0,
        "meta_classification_type": "U",
        "meta_norad_cat_id": 34755,
        "meta_element_set_no": 999,
        "meta_rev_at_epoch": 82333,
        "meta_bstar": 0.001766679,
        "meta_mean_motion_dot": 1.881e-05,
        "meta_mean_motion_ddot": 0,
        "tle_line1": "1 34755U 93036ZZ  25332.64334670  .00001881  00000+0  17667-2 0  9999",
        "tle_line2": "2 34755  73.9254 312.6820 0408222 334.9897 144.2013 13.50483978823331"
      },
      "geometry": {
        "type": "Point",
        "coordinates": [
          -65.12943594486016,
          -33.119365473208966
        ]
      }
    },
    {
      "type": "Feature",
      "properties": {
        "norad_id": 34756,
        "name": "COSMOS 2251 DEB",
        "group": "cosmos-2251-debris",
        "lat": 6.060467600614915,
        "lon": 122.16050657416895,
        "alt_km": 759.0759176615302,
        "timestamp": "2025-12-02T23:34:15.912291+00:00",
        "meta_object_name": "COSMOS 2251 DEB",
        "meta_object_id": "1993-036AAA",
        "meta_epoch": "2025-12-02T11:15:01.010016",
        "meta_mean_motion": 13.67209606,
        "meta_eccentricity": 0.034454,
        "meta_inclination": 74.0021,
        "meta_ra_of_asc_node": 121.259,
        "meta_arg_of_pericenter": 359.3162,
        "meta_mean_anomaly": 0.7434,
        "meta_ephemeris_type": 0,
        "meta_classification_type": "U",
        "meta_norad_cat_id": 34756,
        "meta_element_set_no": 999,
        "meta_rev_at_epoch": 83281,
        "meta_bstar": 0.0010647,
        "meta_mean_motion_dot": 1.324e-05,
        "meta_mean_motion_ddot": 0,
        "tle_line1": "1 34756U 93036AAA 25336.46876169  .00001324  00000+0  10647-2 0  9991",
        "tle_line2": "2 34756  74.0021 121.2590 0344540 359.3162   0.7434 13.67209606832810"
      },
      "geometry": {
        "type": "Point",
        "coordinates": [
          122.16050657416895,
          6.060467600614915
        ]
      }
    },
    {
      "type": "Feature",
      "properties": {
        "norad_id": 34758,
        "name": "COSMOS 2251 DEB",
        "group": "cosmos-2251-debris",
        "lat": 71.62150238097544,
        "lon": 14.236985563253782,
        "alt_km": 753.1104404802163,
        "timestamp": "2025-12-02T23:34:15.912301+00:00",
        "meta_object_name": "COSMOS 2251 DEB",
        "meta_object_id": "1993-036AAC",
        "meta_epoch": "2025-12-02T09:03:10.289952",
        "meta_mean_motion": 13.58026185,
        "meta_eccentricity": 0.0380641,
        "meta_inclination": 74.1071,
        "meta_ra_of_asc_node": 316.1731,
        "meta_arg_of_pericenter": 82.3906,
        "meta_mean_anomaly": 282.0258,
        "meta_ephemeris_type": 0,
        "meta_classification_type": "U",
        "meta_norad_cat_id": 34758,
        "meta_element_set_no": 999,
        "meta_rev_at_epoch": 82769,
        "meta_bstar": 0.0011874,
        "meta_mean_motion_dot": 1.359e-05,
        "meta_mean_motion_ddot": 0,
        "tle_line1": "1 34758U 93036AAC 25336.37720243  .00001359  00000+0  11874-2 0  9995",
        "tle_line2": "2 34758  74.1071 316.1731 0380641  82.3906 282.0258 13.58026185827699"
      },
      "geometry": {
        "type": "Point",
        "coordinates": [
          14.236985563253782,
          71.62150238097544
        ]
      }
    }
  ]
}